[{"OBJECT_NAME":"ONEWEB-0597","OBJECT_ID":"2022-166X","EPOCH":"2025-09-22T20:25:37.271712","MEAN_MOTION":13.21824816,"ECCENTRICITY":0.00019309,"INCLINATION":87.9189,"RA_OF_ASC_NODE":297.3422,"ARG_OF_PERICENTER":89.1729,"MEAN_ANOMALY":270.9626,"EPHEMERIS_TYPE":0,"CLASSIFICATION_TYPE":"U","NORAD_CAT_ID":54663,"ELEMENT_SET_NO":999,"REV_AT_EPOCH":13622,"BSTAR":8.6141061e-5,"MEAN_MOTION_DOT":4.9e-7,"MEAN_MOTION_DDOT":0},{"OBJECT_NAME":"ONEWEB-0600","OBJECT_ID":"2022-166Y","EPOCH":"2025-09-22T12:44:37.489344","MEAN_MOTION":13.21824113,"ECCENTRICITY":0.00018184,"INCLINATION":87.9188,"RA_OF_ASC_NODE":297.3984,"ARG_OF_PERICENTER":89.1035,"MEAN_ANOMALY":271.0308,"EPHEMERIS_TYPE":0,"CLASSIFICATION_TYPE":"U","NORAD_CAT_ID":54664,"ELEMENT_SET_NO":999,"REV_AT_EPOCH":13615,"BSTAR":-4.8234006e-5,"MEAN_MOTION_DOT":-7.0e-8,"MEAN_MOTION_DDOT":0},{"OBJECT_NAME":"ONEWEB-0601","OBJECT_ID":"2022-166Z","EPOCH":"2025-09-23T03:05:15.909504","MEAN_MOTION":13.21823461,"ECCENTRICITY":0.00020551,"INCLINATION":87.9188,"RA_OF_ASC_NODE":297.2963,"ARG_OF_PERICENTER":84.9602,"MEAN_ANOMALY":275.1767,"EPHEMERIS_TYPE":0,"CLASSIFICATION_TYPE":"U","NORAD_CAT_ID":54665,"ELEMENT_SET_NO":999,"REV_AT_EPOCH":13642,"BSTAR":0.00020557559,"MEAN_MOTION_DOT":9.8e-7,"MEAN_MOTION_DDOT":0},{"OBJECT_NAME":"ONEWEB-0602","OBJECT_ID":"2022-166AA","EPOCH":"2025-09-23T00:25:12.293760","MEAN_MOTION":13.21824115,"ECCENTRICITY":0.00015991,"INCLINATION":87.9194,"RA_OF_ASC_NODE":297.3209,"ARG_OF_PERICENTER":85.8058,"MEAN_ANOMALY":274.3259,"EPHEMERIS_TYPE":0,"CLASSIFICATION_TYPE":"U","NORAD_CAT_ID":54666,"ELEMENT_SET_NO":999,"REV_AT_EPOCH":13625,"BSTAR":-7.6544697e-5,"MEAN_MOTION_DOT":-1.9e-7,"MEAN_MOTION_DDOT":0},{"OBJECT_NAME":"ONEWEB-0603","OBJECT_ID":"2022-166AB","EPOCH":"2025-09-22T19:06:08.918784","MEAN_MOTION":13.21826099,"ECCENTRICITY":0.00019067,"INCLINATION":87.9197,"RA_OF_ASC_NODE":297.2991,"ARG_OF_PERICENTER":90.3908,"MEAN_ANOMALY":269.7444,"EPHEMERIS_TYPE":0,"CLASSIFICATION_TYPE":"U","NORAD_CAT_ID":54667,"ELEMENT_SET_NO":999,"REV_AT_EPOCH":13615,"BSTAR":0.00021010931,"MEAN_MOTION_DOT":1.0e-6,"MEAN_MOTION_DDOT":0},{"OBJECT_NAME":"ONEWEB-0604","OBJECT_ID":"2022-166AC","EPOCH":"2025-09-22T18:47:58.149024","MEAN_MOTION":13.21824829,"ECCENTRICITY":0.00018301,"INCLINATION":87.9194,"RA_OF_ASC_NODE":297.3265,"ARG_OF_PERICENTER":86.8051,"MEAN_ANOMALY":273.3292,"EPHEMERIS_TYPE":0,"CLASSIFICATION_TYPE":"U","NORAD_CAT_ID":54668,"ELEMENT_SET_NO":999,"REV_AT_EPOCH":13611,"BSTAR":-7.2591985e-5,"MEAN_MOTION_DOT":-1.7e-7,"MEAN_MOTION_DDOT":0},{"OBJECT_NAME":"ONEWEB-0605","OBJECT_ID":"2022-166AD","EPOCH":"2025-09-22T13:11:53.075904","MEAN_MOTION":13.21828885,"ECCENTRICITY":0.00024476,"INCLINATION":87.9191,"RA_OF_ASC_NODE":297.403,"ARG_OF_PERICENTER":84.0647,"MEAN_ANOMALY":276.0766,"EPHEMERIS_TYPE":0,"CLASSIFICATION_TYPE":"U","NORAD_CAT_ID":54669,"ELEMENT_SET_NO":999,"REV_AT_EPOCH":13615,"BSTAR":7.0735497e-5,"MEAN_MOTION_DOT":4.2e-7,"MEAN_MOTION_DDOT":0},{"OBJECT_NAME":"ONEWEB-0606","OBJECT_ID":"2022-166AE","EPOCH":"2025-09-23T00:37:41.746368","MEAN_MOTION":13.21825643,"ECCENTRICITY":0.00019186,"INCLINATION":87.919,"RA_OF_ASC_NODE":297.3185,"ARG_OF_PERICENTER":99.6243,"MEAN_ANOMALY":260.5107,"EPHEMERIS_TYPE":0,"CLASSIFICATION_TYPE":"U","NORAD_CAT_ID":54670,"ELEMENT_SET_NO":999,"REV_AT_EPOCH":13627,"BSTAR":9.1529846e-5,"MEAN_MOTION_DOT":5.1e-7,"MEAN_MOTION_DDOT":0},{"OBJECT_NAME":"ONEWEB-0607","OBJECT_ID":"2022-166AF","EPOCH":"2025-09-22T20:11:59.681472","MEAN_MOTION":13.21825641,"ECCENTRICITY":0.00019023,"INCLINATION":87.9191,"RA_OF_ASC_NODE":297.3192,"ARG_OF_PERICENTER":89.1796,"MEAN_ANOMALY":270.9556,"EPHEMERIS_TYPE":0,"CLASSIFICATION_TYPE":"U","NORAD_CAT_ID":54671,"ELEMENT_SET_NO":999,"REV_AT_EPOCH":13622,"BSTAR":-3.8607611e-5,"MEAN_MOTION_DOT":-3.0e-8,"MEAN_MOTION_DDOT":0},{"OBJECT_NAME":"ONEWEB-0608","OBJECT_ID":"2022-166AG","EPOCH":"2025-09-22T20:21:04.163904","MEAN_MOTION":13.21824832,"ECCENTRICITY":0.00021418,"INCLINATION":87.9186,"RA_OF_ASC_NODE":297.3017,"ARG_OF_PERICENTER":80.0684,"MEAN_ANOMALY":280.0692,"EPHEMERIS_TYPE":0,"CLASSIFICATION_TYPE":"U","NORAD_CAT_ID":54672,"ELEMENT_SET_NO":999,"REV_AT_EPOCH":13623,"BSTAR":2.6841395e-5,"MEAN_MOTION_DOT":2.4e-7,"MEAN_MOTION_DDOT":0},{"OBJECT_NAME":"ONEWEB-0610","OBJECT_ID":"2022-166AH","EPOCH":"2025-09-23T03:09:50.490432","MEAN_MOTION":13.21825486,"ECCENTRICITY":0.00022294,"INCLINATION":87.9191,"RA_OF_ASC_NODE":297.2825,"ARG_OF_PERICENTER":78.2027,"MEAN_ANOMALY":281.9357,"EPHEMERIS_TYPE":0,"CLASSIFICATION_TYPE":"U","NORAD_CAT_ID":54673,"ELEMENT_SET_NO":999,"REV_AT_EPOCH":13617,"BSTAR":0.00012797476,"MEAN_MOTION_DOT":6.6e-7,"MEAN_MOTION_DDOT":0},{"OBJECT_NAME":"ONEWEB-0611","OBJECT_ID":"2022-166AJ","EPOCH":"2025-09-23T03:00:43.625952","MEAN_MOTION":13.21823231,"ECCENTRICITY":0.00017856,"INCLINATION":87.9189,"RA_OF_ASC_NODE":297.2797,"ARG_OF_PERICENTER":99.1232,"MEAN_ANOMALY":261.0104,"EPHEMERIS_TYPE":0,"CLASSIFICATION_TYPE":"U","NORAD_CAT_ID":54674,"ELEMENT_SET_NO":999,"REV_AT_EPOCH":13616,"BSTAR":7.9976956e-5,"MEAN_MOTION_DOT":4.6e-7,"MEAN_MOTION_DDOT":0},{"OBJECT_NAME":"ONEWEB-0612","OBJECT_ID":"2022-166AK","EPOCH":"2025-09-22T12:46:54.219936","MEAN_MOTION":13.21824519,"ECCENTRICITY":0.00019694,"INCLINATION":87.9191,"RA_OF_ASC_NODE":297.3759,"ARG_OF_PERICENTER":88.6152,"MEAN_ANOMALY":271.5207,"EPHEMERIS_TYPE":0,"CLASSIFICATION_TYPE":"U","NORAD_CAT_ID":54675,"ELEMENT_SET_NO":999,"REV_AT_EPOCH":13607,"BSTAR":-0.00012113432,"MEAN_MOTION_DOT":-3.7e-7,"MEAN_MOTION_DDOT":0},{"OBJECT_NAME":"ONEWEB-0615","OBJECT_ID":"2022-166AL","EPOCH":"2025-09-23T02:51:39.343968","MEAN_MOTION":13.21823536,"ECCENTRICITY":0.00018729,"INCLINATION":87.919,"RA_OF_ASC_NODE":297.2855,"ARG_OF_PERICENTER":93.5315,"MEAN_ANOMALY":266.6033,"EPHEMERIS_TYPE":0,"CLASSIFICATION_TYPE":"U","NORAD_CAT_ID":54676,"ELEMENT_SET_NO":999,"REV_AT_EPOCH":13616,"BSTAR":0.00016619405,"MEAN_MOTION_DOT":8.2e-7,"MEAN_MOTION_DDOT":0},{"OBJECT_NAME":"ONEWEB-0655","OBJECT_ID":"2022-166AM","EPOCH":"2025-09-23T04:02:04.703136","MEAN_MOTION":13.21824528,"ECCENTRICITY":0.00016614,"INCLINATION":87.919,"RA_OF_ASC_NODE":297.2806,"ARG_OF_PERICENTER":84.9606,"MEAN_ANOMALY":275.1717,"EPHEMERIS_TYPE":0,"CLASSIFICATION_TYPE":"U","NORAD_CAT_ID":54677,"ELEMENT_SET_NO":999,"REV_AT_EPOCH":13616,"BSTAR":-6.1094874e-5,"MEAN_MOTION_DOT":-1.2e-7,"MEAN_MOTION_DDOT":0},{"OBJECT_NAME":"ONEWEB-0659","OBJECT_ID":"2022-166AN","EPOCH":"2025-09-23T02:38:02.353344","MEAN_MOTION":13.21824227,"ECCENTRICITY":0.00019897,"INCLINATION":87.9189,"RA_OF_ASC_NODE":297.2928,"ARG_OF_PERICENTER":97.1667,"MEAN_ANOMALY":262.9693,"EPHEMERIS_TYPE":0,"CLASSIFICATION_TYPE":"U","NORAD_CAT_ID":54678,"ELEMENT_SET_NO":999,"REV_AT_EPOCH":13624,"BSTAR":0.00021046186,"MEAN_MOTION_DOT":1.0e-6,"MEAN_MOTION_DDOT":0}]
