ONEWEB-0597             
1 54663U 22166X   25265.85112583  .00000049  00000+0  86141-4 0  9990
2 54663  87.9189 297.3422 0001930  89.1729 270.9626 13.21824816136228
ONEWEB-0600             
1 54664U 22166Y   25265.53098946 -.00000007  00000+0 -48234-4 0  9999
2 54664  87.9188 297.3984 0001818  89.1035 271.0308 13.21824113136157
ONEWEB-0601             
1 54665U 22166Z   25266.12865636  .00000098  00000+0  20558-3 0  9990
2 54665  87.9188 297.2963 0002055  84.9602 275.1767 13.21823461136420
ONEWEB-0602             
1 54666U 22166AA  25266.01750340 -.00000019  00000+0 -76545-4 0  9997
2 54666  87.9194 297.3209 0001599  85.8058 274.3259 13.21824115136254
ONEWEB-0603             
1 54667U 22166AB  25265.79593656  .00000100  00000+0  21011-3 0  9993
2 54667  87.9197 297.2991 0001906  90.3908 269.7444 13.21826099136158
ONEWEB-0604             
1 54668U 22166AC  25265.78331191 -.00000017  00000+0 -72592-4 0  9997
2 54668  87.9194 297.3265 0001830  86.8051 273.3292 13.21824829136113
ONEWEB-0605             
1 54669U 22166AD  25265.54991986  .00000042  00000+0  70735-4 0  9999
2 54669  87.9191 297.4030 0002447  84.0647 276.0766 13.21828885136154
ONEWEB-0606             
1 54670U 22166AE  25266.02617762  .00000051  00000+0  91530-4 0  9998
2 54670  87.9190 297.3185 0001918  99.6243 260.5107 13.21825643136270
ONEWEB-0607             
1 54671U 22166AF  25265.84166298 -.00000003  00000+0 -38608-4 0  9997
2 54671  87.9191 297.3192 0001902  89.1796 270.9556 13.21825641136226
ONEWEB-0608             
1 54672U 22166AG  25265.84796486  .00000024  00000+0  26841-4 0  9993
2 54672  87.9186 297.3017 0002141  80.0684 280.0692 13.21824832136234
ONEWEB-0610             
1 54673U 22166AH  25266.13183438  .00000066  00000+0  12797-3 0  9994
2 54673  87.9191 297.2825 0002229  78.2027 281.9357 13.21825486136171
ONEWEB-0611             
1 54674U 22166AJ  25266.12550493  .00000046  00000+0  79977-4 0  9995
2 54674  87.9189 297.2797 0001785  99.1232 261.0104 13.21823231136167
ONEWEB-0612             
1 54675U 22166AK  25265.53257199 -.00000037  00000+0 -12113-3 0  9997
2 54675  87.9191 297.3759 0001969  88.6152 271.5207 13.21824519136078
ONEWEB-0615             
1 54676U 22166AL  25266.11920537  .00000082  00000+0  16619-3 0  9999
2 54676  87.9190 297.2855 0001872  93.5315 266.6033 13.21823536136163
ONEWEB-0655             
1 54677U 22166AM  25266.16810999 -.00000012  00000+0 -61095-4 0  9999
2 54677  87.9190 297.2806 0001661  84.9606 275.1717 13.21824528136169
ONEWEB-0659             
1 54678U 22166AN  25266.10974946  .00000100  00000+0  21046-3 0  9994
2 54678  87.9189 297.2928 0001989  97.1667 262.9693 13.21824227136241
